STARLINK-4778           
1 53836U 22114U   26068.85502752 -.00003218  00000+0 -18423-3 0  9997
2 53836  53.2188 293.5790 0001306  85.4785 274.6356 15.08832122192991
KUIPER-00148            
1 65769U 25217H   26068.27522507  .00015783  00000+0  98730-3 0  9995
2 65769  51.8794  26.5769 0008108 351.8096   8.2745 15.09536529 25078
